NORAD_CAT_ID,OBJECT_NAME,OBJECT_TYPE,EPOCH,MEAN_MOTION,ECCENTRICITY,INCLINATION,RA_OF_ASC_NODE,ARG_OF_PERICENTER,MEAN_ANOMALY,BSTAR,MEAN_MOTION_DOT,MEAN_MOTION_DDOT,TLE_LINE0,TLE_LINE1,TLE_LINE2,SEMIMAJOR_AXIS,PERIOD,APOGEE,PERIGEE,DECAYED
53008.0,STARLINK-4275,PAYLOAD,2022-10-10 14:00:01,15.0884802,0.0001631999999999,53.2163,288.1001,48.3762,138.4839,-0.0025936999999999,-0.00041339,0.0,0 STARLINK-4275,1 53008U 22076Y   22283.58334491 -.00041339  00000-0 -25937-2 0  9997,2 53008  53.2163 288.1001 0001632  48.3762 138.4839 15.08848020  1306,6917.856,95.437,540.85,538.592,0.0
53008.0,STARLINK-4275,PAYLOAD,2022-10-10 22:00:01,15.0887956,0.0001443,53.2164,286.6012,54.5762,143.9602,-0.0087388,-0.00136882,0.0,0 STARLINK-4275,1 53008U 22076Y   22283.91668981 -.00136882  00000-0 -87388-2 0  9994,2 53008  53.2164 286.6012 0001443  54.5762 143.9602 15.08879560 15252,6917.759,95.435,540.623,538.626,0.0
53008.0,STARLINK-4275,PAYLOAD,2022-10-11 06:00:00,15.08818683,0.0001665999999999,53.2164,285.1042,53.3473,156.7086,-0.00086396,-0.00014004,0.0,0 STARLINK-4275,1 53008U 22076Y   22284.25001157 -.00014004  00000-0 -86396-3 0  9998,2 53008  53.2164 285.1042 0001666  53.3473 156.7086 15.08818683 15305,6917.946,95.439,540.9630000000002,538.658,0.0
53008.0,STARLINK-4275,PAYLOAD,2022-10-11 14:00:01,15.08775184,0.0001413,53.2167,283.6128,59.2729,162.3764,0.0060501,0.00097157,0.0,0 STARLINK-4275,1 53008U 22076Y   22284.58334491  .00097157  00000-0  60501-2 0  9991,2 53008  53.2167 283.6128 0001413  59.2729 162.3764 15.08775184  1304,6918.079000000002,95.442,540.9209999999998,538.966,0.0
53008.0,STARLINK-4275,PAYLOAD,2022-10-11 22:00:00,15.08815362,0.0001536,53.2164,282.1081,58.0601,175.1401,0.0034345,0.0005476,0.0,0 STARLINK-4275,1 53008U 22076Y   22284.91667824  .00054760  00000-0  34345-2 0  9997,2 53008  53.2164 282.1081 0001536  58.0601 175.1401 15.08815362 15404,6917.956,95.439,540.883,538.758,0.0
53008.0,STARLINK-4275,PAYLOAD,2022-10-12 14:00:01,15.08848735,0.0001641,53.2168,279.121,48.9827,207.3947,-3.3887e-05,-8.27e-06,0.0,0 STARLINK-4275,1 53008U 22076Y   22285.58334491 -.00000827  00000-0 -33887-4 0  9991,2 53008  53.2168 279.1210 0001641  48.9827 207.3947 15.08848735 15507,6917.854,95.437,540.854,538.5830000000002,0.0
53008.0,STARLINK-4275,PAYLOAD,2022-10-12 22:00:00,15.08840708,0.0001585999999999,53.2172,277.6255,56.1283,211.8578,-0.00044375,-7.344e-05,0.0,0 STARLINK-4275,1 53008U 22076Y   22285.91667824 -.00007344  00000-0 -44375-3 0  9991,2 53008  53.2172 277.6255 0001586  56.1283 211.8578 15.08840708  1304,6917.878000000002,95.438,540.84,538.646,0.0
53008.0,STARLINK-4275,PAYLOAD,2022-10-13 14:00:01,15.08837021,0.0001509,53.217,274.6335,59.9839,231.1889,-0.00015849,-2.809e-05,0.0,0 STARLINK-4275,1 53008U 22076Y   22286.58334491 -.00002809  00000-0 -15849-3 0  9991,2 53008  53.2170 274.6335 0001509  59.9839 231.1889 15.08837021  1305,6917.889,95.438,540.798,538.711,0.0
53008.0,STARLINK-4275,PAYLOAD,2022-10-13 20:00:01,15.08836729,0.0001344,53.2173,273.5119,67.6403,142.2883,-1.5628e-05,-5.37e-06,0.0,0 STARLINK-4275,1 53008U 22076Y   22286.83335648 -.00000537  00000-0 -15628-4 0  9996,2 53008  53.2173 273.5119 0001344  67.6403 142.2883 15.08836729 15693,6917.89,95.438,540.685,538.826,0.0
53008.0,STARLINK-4275,PAYLOAD,2022-10-13 22:00:00,15.08835606,0.0001361999999999,53.2175,273.1378,68.3538,234.4105,0.00010476,1.3800000000000008e-05,0.0,0 STARLINK-4275,1 53008U 22076Y   22286.91667824  .00001380  00000-0  10476-3 0  9999,2 53008  53.2175 273.1378 0001362  68.3538 234.4105 15.08835606  1302,6917.894,95.438,540.701,538.817,0.0
53008.0,STARLINK-4275,PAYLOAD,2022-10-14 14:00:01,15.08841525,0.0001486,53.2171,270.1447,60.5431,265.4035,-0.00056563,-9.279e-05,0.0,0 STARLINK-4275,1 53008U 22076Y   22287.58334491 -.00009279  00000-0 -56563-3 0  9998,2 53008  53.2171 270.1447 0001486  60.5431 265.4035 15.08841525  1308,6917.876,95.437,540.769,538.7130000000002,0.0
53008.0,STARLINK-4275,PAYLOAD,2022-10-14 20:00:01,15.08836378,0.0001382,53.2173,269.0228,66.3521,178.2907,1.0266e-05,-1.25e-06,0.0,0 STARLINK-4275,1 53008U 22076Y   22287.83334491 -.00000125  00000-0  10266-4 0  9997,2 53008  53.2173 269.0228 0001382  66.3521 178.2907 15.08836378  1302,6917.891,95.438,540.7130000000002,538.8,0.0
53008.0,STARLINK-4275,PAYLOAD,2022-10-15 06:00:00,15.08837603,0.0001503,53.2175,267.1541,63.0907,286.0405,-9.9036e-05,-1.864e-05,0.0,0 STARLINK-4275,1 53008U 22076Y   22288.25001157 -.00001864  00000-0 -99036-4 0  9998,2 53008  53.2175 267.1541 0001503  63.0907 286.0405 15.08837603 15902,6917.888000000001,95.438,540.7919999999998,538.7130000000002,0.0
53008.0,STARLINK-4275,PAYLOAD,2022-10-15 14:00:01,15.08873412,0.0001517,53.2164,265.6494,58.5624,302.2118,-0.0028431999999999,-0.00045294,0.0,0 STARLINK-4275,1 53008U 22076Y   22288.58334491 -.00045294  00000-0 -28432-2 0  9999,2 53008  53.2164 265.6494 0001517  58.5624 302.2118 15.08873412  1310,6917.778,95.435,540.693,538.594,0.0
53008.0,STARLINK-4275,PAYLOAD,2022-10-15 22:00:01,15.08840254,0.0001465999999999,53.2165,264.1521,66.8577,305.5919,-0.0017879999999999,-0.00028631,0.0,0 STARLINK-4275,1 53008U 22076Y   22288.91668981 -.00028631  00000-0 -17880-2 0  9991,2 53008  53.2165 264.1521 0001466  66.8577 305.5919 15.08840254  1300,6917.88,95.438,540.759,538.73,0.0
53008.0,STARLINK-4275,PAYLOAD,2022-10-16 14:00:01,15.08833524,0.0001599,53.216,261.1604,61.8597,333.6646,-0.0010745,-0.00017345,0.0,0 STARLINK-4275,1 53008U 22076Y   22289.58334491 -.00017345  00000-0 -10745-2 0  9994,2 53008  53.2160 261.1604 0001599  61.8597 333.6646 15.08833524  1309,6917.9,95.438,540.871,538.659,0.0
53008.0,STARLINK-4275,PAYLOAD,2022-10-16 22:00:00,15.0882614,0.0001565999999999,53.2161,259.6641,69.6708,337.4321,0.0025279,0.00040158,0.0,0 STARLINK-4275,1 53008U 22076Y   22289.91667824  .00040158  00000-0  25279-2 0  9994,2 53008  53.2161 259.6641 0001566  69.6708 337.4321 15.08826140  1305,6917.9230000000025,95.438,540.871,538.7040000000002,0.0
53008.0,STARLINK-4275,PAYLOAD,2022-10-17 06:00:00,15.08846521,0.0001675999999999,53.2162,258.1701,60.9948,357.6936,-0.0019422,-0.00031071,0.0,0 STARLINK-4275,1 53008U 22076Y   22290.25001157 -.00031071  00000-0 -19422-2 0  9993,2 53008  53.2162 258.1701 0001676  60.9948 357.6936 15.08846521 16205,6917.86,95.437,540.885,538.566,0.0
53008.0,STARLINK-4275,PAYLOAD,2022-10-17 14:00:01,15.08846876,0.0001549,53.2163,256.6724,61.2125,9.0747,-0.0008681,-0.0001408,0.0,0 STARLINK-4275,1 53008U 22076Y   22290.58334491 -.00014080  00000-0 -86810-3 0  9996,2 53008  53.2163 256.6724 0001549  61.2125   9.0747 15.08846876  1300,6917.859,95.437,540.7959999999998,538.653,0.0
53008.0,STARLINK-4275,PAYLOAD,2022-10-17 22:00:00,15.08853485,0.0001602,53.216,255.175,69.4413,12.4458,-0.00070408,-0.0001147999999999,0.0,0 STARLINK-4275,1 53008U 22076Y   22290.91667824 -.00011480  00000-0 -70408-3 0  9999,2 53008  53.2160 255.1750 0001602  69.4413  12.4458 15.08853485 16307,6917.839,95.437,540.812,538.596,0.0
53008.0,STARLINK-4275,PAYLOAD,2022-10-18 14:00:01,15.08831606,0.00016,53.2161,252.1822,62.472,42.5862,-0.0015386,-0.00024686,0.0,0 STARLINK-4275,1 53008U 22076Y   22291.58334491 -.00024686  00000-0 -15386-2 0  9999,2 53008  53.2161 252.1822 0001600  62.4720  42.5862 15.08831606 16402,6917.906,95.438,540.878,538.664,0.0
53008.0,STARLINK-4275,PAYLOAD,2022-10-18 22:00:00,15.08827871,0.000161,53.2163,250.6852,67.756,48.8742,0.0013423,0.00021132,0.0,0 STARLINK-4275,1 53008U 22076Y   22291.91667824  .00021132  00000-0  13423-2 0  9996,2 53008  53.2163 250.6852 0001610  67.7560  48.8742 15.08827871  1309,6917.917,95.438,540.896,538.669,0.0
53008.0,STARLINK-4275,PAYLOAD,2022-10-19 06:00:00,15.0883307,0.000171,53.2164,249.1906,59.8898,68.3333,0.0011175,0.00017538,0.0,0 STARLINK-4275,1 53008U 22076Y   22292.25001157  .00017538  00000-0  11175-2 0  9992,2 53008  53.2164 249.1906 0001710  59.8898  68.3333 15.08833070 16510,6917.901999999999,95.438,540.95,538.5840000000002,0.0
53008.0,STARLINK-4275,PAYLOAD,2022-10-19 14:00:01,15.08848716,0.0001553,53.2164,247.693,62.3619,77.4574,-0.0019033,-0.00030459,0.0,0 STARLINK-4275,1 53008U 22076Y   22292.58334491 -.00030459  00000-0 -19033-2 0  9998,2 53008  53.2164 247.6930 0001553  62.3619  77.4574 15.08848716  1307,6917.854,95.437,540.793,538.644,0.0
53008.0,STARLINK-4275,PAYLOAD,2022-10-19 22:00:00,15.08843446,0.0001541,53.2168,246.1961,67.3283,84.0794,0.0010856,0.00017033,0.0,0 STARLINK-4275,1 53008U 22076Y   22292.91667824  .00017033  00000-0  10856-2 0  9999,2 53008  53.2168 246.1961 0001541  67.3283  84.0794 15.08843446  1301,6917.87,95.437,540.8009999999998,538.669,0.0
53008.0,STARLINK-4275,PAYLOAD,2022-10-20 06:00:00,15.08844238,0.0001618,53.2167,244.7014,58.3819,104.6296,-0.0003843,-6.4e-05,0.0,0 STARLINK-4275,1 53008U 22076Y   22293.25001157 -.00006400  00000-0 -38430-3 0  9995,2 53008  53.2167 244.7014 0001618  58.3819 104.6296 15.08844238 16664,6917.8669999999975,95.437,540.852,538.613,0.0
53008.0,STARLINK-4275,PAYLOAD,2022-10-20 14:00:01,15.08839161,0.0001460999999999,53.217,243.2046,62.0351,112.5755,-0.00046007,-7.602e-05,0.0,0 STARLINK-4275,1 53008U 22076Y   22293.58334491 -.00007602  00000-0 -46007-3 0  9995,2 53008  53.2170 243.2046 0001461  62.0351 112.5755 15.08839161  1308,6917.8830000000025,95.438,540.759,538.737,0.0
53008.0,STARLINK-4275,PAYLOAD,2022-10-20 22:00:00,15.08855787,0.0001518,53.217,241.708,68.7126,117.4876,-0.0022171,-0.00035415,0.0,0 STARLINK-4275,1 53008U 22076Y   22293.91667824 -.00035415  00000-0 -22171-2 0  9999,2 53008  53.2170 241.7080 0001518  68.7126 117.4876 15.08855787  1305,6917.831999999999,95.437,540.747,538.6469999999998,0.0
53008.0,STARLINK-4275,PAYLOAD,2022-10-21 14:00:01,15.08843943,0.0001544,53.2172,238.7153,66.2438,143.1342,-8.3096e-05,-1.6100000000000002e-05,0.0,0 STARLINK-4275,1 53008U 22076Y   22294.58334491 -.00001610  00000-0 -83096-4 0  9999,2 53008  53.2172 238.7153 0001544  66.2438 143.1342 15.08843943  1307,6917.868,95.437,540.8009999999998,538.665,0.0
